2023-062B               
1 56443U 23062B   23144.08817854  .00009967  00000+0  63590-3 0  9996
2 56443  32.7352  48.2437 0012754  11.9987 348.0984 15.07612870  2418
TROPICS-06              
1 56444U 23062C   23144.08563783  .00009010  00000+0  57085-3 0  9997
2 56444  32.7374  48.2174 0014946   6.3629 353.7228 15.07829233  2380
2023-062D               
1 56445U 23062D   23144.11038125  .00008485  00000+0  57521-3 0  9999
2 56445  35.4834  52.5122 0012997 359.3216   0.7482 15.05763661  2392
TIANZHOU-6              
1 56446U 23063A   23144.60527144  .00026770  00000+0  31452-3 0  9991
2 56446  41.4744 299.1913 0010594 234.8243 125.1604 15.60777271118158
STARLINK-5990           
1 56448U 23064A   23145.16668981 -.00929954  00000+0 -73125-2 0  9991
2 56448  69.9988 204.7310 0003712 266.6496 358.6871 15.73827760  2643
STARLINK-5993           
1 56449U 23064B   23145.50001157 -.00860525  00000+0 -69302-2 0  9996
2 56449  69.9992 203.7913 0003531 272.0618  78.6921 15.73081169  2698
STARLINK-5970           
1 56450U 23064C   23145.50001157 -.00866562  00000+0 -69663-2 0  9995
2 56450  69.9988 203.7882 0003833 274.0165  79.4006 15.73136071  2690
STARLINK-5985           
1 56451U 23064D   23145.50001157 -.00855601  00000+0 -68846-2 0  9990
2 56451  69.9979 203.7892 0003376 272.1084  79.1782 15.73089311  2695
STARLINK-5986           
1 56452U 23064E   23145.50001157 -.00865628  00000+0 -69678-2 0  9995
2 56452  69.9985 203.7897 0003849 273.8708  77.9497 15.73103140  2690
STARLINK-5935           
1 56453U 23064F   23145.50001157 -.00842537  00000+0 -67663-2 0  9992
2 56453  69.9974 203.7875 0003310 274.9905  77.3687 15.73098868  2694
STARLINK-5959           
1 56454U 23064G   23145.50001157 -.00858871  00000+0 -68881-2 0  9994
2 56454  69.9991 203.7858 0003279 273.8929  81.6495 15.73176611  2691
STARLINK-5987           
1 56455U 23064H   23145.50001157 -.00867969  00000+0 -69626-2 0  9991
2 56455  69.9976 203.7832 0003485 274.3215  81.7478 15.73194443  2695
STARLINK-5995           
1 56456U 23064J   23145.50001157 -.00850866  00000+0 -68283-2 0  9998
2 56456  69.9987 203.7873 0003372 272.8956  81.0558 15.73138089  2699
STARLINK-5994           
1 56457U 23064K   23145.16668981 -.00929624  00000+0 -72968-2 0  9999
2 56457  69.9972 204.7259 0003635 266.9627   0.4546 15.73869262  2645
STARLINK-6050           
1 56458U 23064L   23145.50001157 -.00867181  00000+0 -69654-2 0  9991
2 56458  69.9985 203.7861 0003809 274.2639  80.2176 15.73157717  2691
STARLINK-6048           
1 56459U 23064M   23145.50001157 -.00866508  00000+0 -69372-2 0  9991
2 56459  69.9983 203.7810 0003815 274.3409  83.8596 15.73232061  2698
STARLINK-6047           
1 56460U 23064N   23145.50001157 -.00869815  00000+0 -69754-2 0  9991
2 56460  69.9983 203.7835 0003399 274.7811  81.8163 15.73207367  2694
STARLINK-6037           
1 56461U 23064P   23145.50001157 -.00860103  00000+0 -68765-2 0  9994
2 56461  69.9983 203.7795 0003295 272.1338  87.1238 15.73252387  2695
STARLINK-6045           
1 56462U 23064Q   23145.25001157 -.00955417  00000+0 -47431-2 0  9997
2 56462  69.9981 204.0824 0003848 268.7564  96.4486 15.84004848  2661
STARLINK-6051           
1 56463U 23064R   23145.16668981 -.00936241  00000+0 -73224-2 0  9995
2 56463  69.9987 204.7212 0003667 265.9539   6.1219 15.73970314  2644
STARLINK-6043           
1 56464U 23064S   23145.50001157 -.00868873  00000+0 -69609-2 0  9997
2 56464  69.9976 203.7814 0003512 272.9234  84.7420 15.73226541  2696
STARLINK-6054           
1 56465U 23064T   23145.50001157 -.00701747  00000+0 -30212-2 0  9992
2 56465  69.9959 203.2538 0003640 273.9189 167.2877 15.86357867  2703
STARLINK-6053           
1 56466U 23064U   23145.16668981 -.00927779  00000+0 -72573-2 0  9990
2 56466  69.9977 204.7218 0003706 267.6887   3.3567 15.73942605  2648
STARLINK-6055           
1 56467U 23064V   23145.16668981 -.00936464  00000+0 -73042-2 0  9994
2 56467  69.9989 204.7173 0003640 265.6175   9.5573 15.74034184  2647
STARLINK-5998           
1 56468U 23064W   23145.16668981 -.00935860  00000+0 -73127-2 0  9998
2 56468  69.9978 204.7195 0003636 266.3706   6.7414 15.73990827  2640
STARLINK-5518           
1 56469U 23064X   23145.50001157 -.00867056  00000+0 -69232-2 0  9996
2 56469  69.9982 203.7766 0003784 274.4005  86.9799 15.73295609  2692
STARLINK-5523           
1 56470U 23064Y   23145.16668981 -.00933378  00000+0 -72814-2 0  9995
2 56470  69.9983 204.7183 0003649 266.2746   8.3858 15.74021385  2648
STARLINK-5521           
1 56471U 23064Z   23145.16668981 -.00930909  00000+0 -72503-2 0  9998
2 56471  69.9991 204.7163 0003726 265.8214  10.3874 15.74051091  2645
STARLINK-5038           
1 56472U 23064AA  23145.16668981 -.00934332  00000+0 -72828-2 0  9993
2 56472  69.9987 204.7171 0003636 266.7963   8.8978 15.74043350  2647
STARLINK-5486           
1 56473U 23064AB  23145.16668981 -.00937361  00000+0 -72953-2 0  9998
2 56473  69.9980 204.7136 0003629 266.0622  11.6957 15.74086999  2644
STARLINK-5524           
1 56474U 23064AC  23145.16668981 -.00932532  00000+0 -72778-2 0  9999
2 56474  69.9987 204.7189 0003634 266.2272   7.9181 15.74009717  2649
STARLINK-5541           
1 56475U 23064AD  23144.91667824 -.00853806  00000+0 -64492-2 0  9997
2 56475  69.9977 205.4189 0003559 268.4291  34.3694 15.74544476  1309
STARLINK-5545           
1 56476U 23064AE  23145.16668981 -.00933461  00000+0 -72688-2 0  9993
2 56476  69.9983 204.7155 0003653 266.0051  10.7181 15.74063545  2645
STARLINK-5534           
1 56477U 23064AF  23145.16668981 -.00936369  00000+0 -72733-2 0  9995
2 56477  69.9971 204.7102 0003657 265.8393  13.9742 15.74129040  2646
STARLINK-6041           
1 56478U 23064AG  23145.16668981 -.00931872  00000+0 -72453-2 0  9999
2 56478  69.9975 204.7128 0003725 266.2330  12.0423 15.74093486  2641
STARLINK-6044           
1 56479U 23064AH  23145.16668981 -.00931990  00000+0 -72233-2 0  9997
2 56479  69.9974 204.7079 0003670 267.3838  14.4929 15.74167538  2647
STARLINK-6214           
1 56480U 23064AJ  23145.16668981 -.00931509  00000+0 -72489-2 0  9998
2 56480  69.9976 204.7142 0003710 266.5463  10.6969 15.74072256  2646
STARLINK-6222           
1 56481U 23064AK  23145.16668981 -.00933105  00000+0 -72390-2 0  9994
2 56481  69.9977 204.7093 0003684 267.0256  13.8181 15.74147994  2642
STARLINK-6220           
1 56482U 23064AL  23145.16668981 -.00933923  00000+0 -72596-2 0  9991
2 56482  69.9973 204.7120 0003649 266.4757  12.3132 15.74105457  2648
STARLINK-5868           
1 56483U 23064AM  23145.16668981 -.00938006  00000+0 -72708-2 0  9994
2 56483  69.9972 204.7071 0003598 265.8795  16.5075 15.74182556  2648
STARLINK-6221           
1 56484U 23064AN  23145.16668981 -.00935173  00000+0 -72601-2 0  9999
2 56484  69.9980 204.7107 0003646 266.4313  13.9000 15.74138254  2640
STARLINK-6210           
1 56485U 23064AP  23145.16668981 -.00936319  00000+0 -72534-2 0  9998
2 56485  69.9969 204.7060 0003605 266.1681  16.7343 15.74191438  2640
STARLINK-6201           
1 56486U 23064AQ  23145.16668981 -.00934613  00000+0 -72488-2 0  9992
2 56486  69.9978 204.7092 0003647 265.7665  15.5942 15.74158758  2649
STARLINK-6196           
1 56487U 23064AR  23145.16668981 -.00934687  00000+0 -72296-2 0  9991
2 56487  69.9968 204.7043 0003655 265.8044  18.6392 15.74221714  2642
STARLINK-6204           
1 56488U 23064AS  23145.16668981 -.00933038  00000+0 -72220-2 0  9998
2 56488  69.9983 204.7071 0003708 267.0162  16.4017 15.74199997  2642
STARLINK-5923           
1 56489U 23064AT  23145.16668981 -.00932312  00000+0 -72061-2 0  9996
2 56489  69.9968 204.7034 0003694 267.6191  17.3375 15.74230955  2644
STARLINK-5873           
1 56490U 23064AU  23145.16668981 -.00934565  00000+0 -72319-2 0  9996
2 56490  69.9974 204.7057 0003637 266.2025  17.7265 15.74211288  2646
STARLINK-5842           
1 56491U 23064AV  23145.16668981 -.00934507  00000+0 -72213-2 0  9996
2 56491  69.9969 204.7028 0003646 266.9479  18.5188 15.74243340  2646
STARLINK-5846           
1 56492U 23064AW  23145.16668981 -.00936108  00000+0 -72286-2 0  9996
2 56492  69.9964 204.7019 0003610 265.8813  20.6154 15.74264410  2641
STARLINK-5841           
1 56493U 23064AX  23145.50001157  .00129467  00000+0  89475-3 0  9990
2 56493  69.9972 203.7556 0004008 271.8664 105.4264 15.73994573  2697
STARLINK-5530           
1 56494U 23064AY  23145.16668981 -.00933600  00000+0 -72105-2 0  9992
2 56494  69.9971 204.7030 0003670 266.4382  19.5428 15.74252603  2640
STARLINK-5529           
1 56495U 23064AZ  23145.16668981 -.00934684  00000+0 -72097-2 0  9996
2 56495  69.9969 204.7001 0003658 265.6857  21.8302 15.74285028  2644
STARLINK-5526           
1 56496U 23064BA  23145.50001157 -.00865796  00000+0 -68251-2 0  9995
2 56496  69.9977 203.7583 0003746 274.8145 101.3184 15.73589981  2699
STARLINK-5527           
1 56497U 23064BB  23145.16668981 -.00934414  00000+0 -72007-2 0  9990
2 56497  69.9966 204.6986 0003661 266.3760  22.1599 15.74306320  2640
STARLINK-5522           
1 56498U 23064BC  23145.16668981 -.00933640  00000+0 -72042-2 0  9990
2 56498  69.9966 204.7012 0003686 266.4017  20.6043 15.74273576  2648
STARLINK-5775           
1 56503U 23065A   23145.50001157 -.00035097  00000+0 -26517-3 0  9998
2 56503  43.0012  16.1963 0001733 274.3578 303.2971 15.71368066  2209
STARLINK-5716           
1 56504U 23065B   23145.50001157 -.00033088  00000+0 -24968-3 0  9995
2 56504  43.0016  16.1925 0001667 275.2811 303.5636 15.71373567  2201
STARLINK-5763           
1 56505U 23065C   23145.50001157 -.00003866  00000+0 -26056-4 0  9998
2 56505  43.0015  16.1914 0001933 260.6891 318.7556 15.71346191  2203
STARLINK-5340           
1 56506U 23065D   23145.50001157 -.00019010  00000+0 -14186-3 0  9997
2 56506  43.0016  16.1942 0001837 262.8428 315.4103 15.71352023  2202
